C/2020 F6 (PANSTARRS),e,174.5830,207.9070,344.5332,396.4115,0.0001249,0.99115946,0.0000,04/11.6703/2020,2000,g 14.5,2.8
# From MPEC 2023-J95
C/2020 F7 (Lemmon),e,93.9519,321.8667,227.9485,572.9876,0.0000719,0.99069408,0.0000,11/13.6949/2021,2000,g  7.0,4.0
# From MPEC 2023-J29
C/2020 F8 (SWAN),h,05/27.2229/2020,110.6234,259.8793,68.0832,1.000188,0.429514,2000,10.0,4.0
# From MPEC 2020-L06
P/2020 G1 (Pimentel),e,18.5136,240.1318,207.5891,3.608198,0.1438032,0.86045478,177.9250,08/07.0/2023,2000,g 17.0,4.0
# From MPEC 2022-YB4
C/2020 H2 (Pruyne),e,124.8947,277.6668,26.6593,188.8488,0.0003798,0.99559997,0.0000,04/27.8233/2020,2000,g 14.0,3.2
# From MPEC 2020-HM1
C/2020 H3 (Wierzchos),p,06/05.7162/2020,62.5292,30.4456,2.300288,270.6227,2000,13.5,4.0
# From MPEC 2020-L06
C/2020 H4 (Leonard),e,84.4951,307.6278,117.5410,47.83648,0.0029790,0.98067633,0.0000,08/29.6497/2020,2000,g 15.0,3.2
# From MPEC 2023-N01
C/2020 H5 (Robinson),e,70.2564,210.6277,326.3293,3984,0.0000039,0.99765528,0.0000,12/10.6376/2020,2000,g  5.0,4.0
# From MPEC 2023-P25
C/2020 H6 (ATLAS),e,79.9778,213.7207,20.2941,6660,0.0000018,0.99929409,0.0000,09/30.5986/2021,2000,g  8.0,3.2
# From MPEC 2020-KB7
C/2020 H7 (Lemmon),e,135.9235,323.5194,82.6780,1405,0.0000187,0.99685380,0.0000,06/02.9510/2020,2000,g 11.0,4.0
# From MPEC 2021-N06
C/2020 H8 (PANSTARRS),e,99.6935,68.4309,128.9323,598.5543,0.0000673,0.99219068,0.0000,06/04.5200/2020,2000,g 10.5,4.0
# From MPEC 2022-ED3
A/2020 H9,e,137.8795,213.1842,312.8209,370.0650,0.0001384,0.99304785,0.0000,12/21.7111/2019,2000,g 18.0,2.0
# From MPEC 2023-HN7
C/2020 H11 (PANSTARRS-Lemmon),h,09/15.0146/2020,151.3990,303.0374,91.4646,1.002157,7.626881,2000,8.5,4.0
# From MPEC 2023-KD6
C/2020 J1 (SONEAR),h,04/18.6224/2021,142.3056,226.6077,341.7340,1.000738,3.352641,2000,8.5,3.2
# From MPEC 2023-P25
C/2020 K1 (PANSTARRS),e,89.6720,94.3568,213.9860,67786,0.0000001,0.99995466,0.0000,05/09.0903/2023,2000,g  5.5,4.0
# From MPEC 2021-N06
C/2020 K2 (PANSTARRS),h,08/06.3612/2020,91.0244,288.4007,67.3522,1.003844,8.880026,2000,10.8,4.0
# From MPEC 2020-KF9
C/2020 K3 (Leonard),p,06/01.0032/2020,129.0152,64.4924,1.583069,28.3546,2000,14.5,4.0
# From MPEC 2020-L06
C/2020 K4 (PANSTARRS),e,125.5840,264.2100,308.8664,23.96856,0.0083993,0.92685176,10.5072,08/07.0/2023,2000,g 16.5,4.0
# From MPEC 2021-R75
C/2020 K5 (PANSTARRS),h,06/05.4110/2021,67.1074,86.1593,249.6155,1.001333,1.537042,2000,11.0,4.0
# From MPEC 2023-N01
C/2020 K6 (Rankin),h,09/15.8356/2021,103.6488,291.5594,44.3383,1.003668,5.868866,2000,8.0,4.0
# From MPEC 2023-A50
C/2020 K7 (PANSTARRS),e,32.0426,286.0856,358.2484,98.18991,0.0010130,0.93487910,1.3970,08/07.0/2023,2000,g  8.0,4.0
# From MPEC 2021-P47
C/2020 K8 (Catalina-ATLAS),h,09/14.9323/2020,31.4229,181.5278,259.9583,1.000195,0.471615,2000,15.0,3.2
# From MPEC 2021-BE3
P/2020 K9 (Lemmon-PANSTARRS),e,23.2072,166.2454,197.0814,4.203403,0.1143675,0.32119820,103.5677,08/07.0/2023,2000,g 12.5,4.0
# From MPEC 2023-C45
P/2020 M1 (PANSTARRS),e,8.5354,142.6149,72.6543,5.317062,0.0803890,0.47340092,106.1680,08/07.0/2023,2000,g 14.5,4.0
# From MPEC 2022-H30
C/2020 M3 (ATLAS),e,23.4788,71.1471,328.5802,27.12858,0.0069753,0.95323204,7.0805,08/07.0/2023,2000,g 14.5,4.0
# From MPEC 2023-N01
A/2020 M4,h,11/24.1409/2020,160.1241,348.6233,104.6264,1.001085,5.950077,2000,14.5,2.0
# From MPC xxxxx
P/2020 MK4 (PANSTARRS),e,6.7949,0.7137,99.3943,6.209321,0.0636998,0.01222051,268.0639,08/07.0/2023,2000,g  8.0,4.0
# From MPEC 2023-FK0
C/2020 M5 (ATLAS),h,08/19.8583/2021,93.2165,352.0875,126.2951,1.000380,3.002329,2000,9.0,4.0
# From MPEC 2022-GA9
C/2020 N1 (PANSTARRS),h,03/12.4060/2021,29.7320,279.9164,186.7630,1.000486,1.318138,2000,12.5,4.0
# From MPEC 2021-P47
C/2020 N2 (ATLAS),e,161.0330,257.1715,331.3165,104.6463,0.0009207,0.98287576,0.0000,08/24.1737/2020,2000,g 16.0,3.2
# From MPEC 2023-OA6
C/2020 O2 (Amaral),h,08/28.4441/2021,71.7613,256.7772,10.2974,1.001416,4.862315,2000,8.0,3.2
# From MPEC 2023-C45
P/2020 O3 (PANSTARRS),e,8.4445,266.8185,81.6052,4.647415,0.0983755,0.10300761,90.4265,08/07.0/2023,2000,g 12.0,4.0
# From MPEC 2021-BE3
C/2020 P1 (NEOWISE),h,10/20.5075/2020,45.1894,53.4813,8.8921,1.000329,0.340883,2000,14.0,3.2
# From MPEC 2023-O39
C/2020 P3 (ATLAS),h,04/21.5111/2021,61.8893,19.4657,82.2818,1.001775,6.812661,2000,6.0,4.0
# From MPEC 2022-PB4
C/2020 PV6 (PANSTARRS),e,128.2214,329.1489,71.3782,42.07172,0.0036118,0.94545805,2.4556,08/07.0/2023,2000,g 10.0,4.0
# From MPEC 2022-L66
C/2020 Q1 (Borisov),e,142.9480,52.3834,9.9669,61.02443,0.0020675,0.97839222,0.0000,08/14.4076/2020,2000,g 14.0,4.0
# From MPEC 2023-CD7
C/2020 Q2 (PANSTARRS),e,3.3361,179.8270,118.2735,10.63902,0.0284022,0.49146383,36.5180,08/07.0/2023,2000,g 12.0,3.2
# From MPEC 2022-X67
C/2020 R2 (PANSTARRS),e,53.2282,195.0933,211.8053,413.0405,0.0001174,0.98863722,0.0000,02/24.9796/2022,2000,g  9.0,4.0
# From MPEC 2022-K19
C/2020 R4 (ATLAS),e,164.4478,323.2704,46.6732,99.78763,0.0009888,0.98971478,0.0000,03/02.2276/2021,2000,g 13.5,4.0
# From MPEC 2023-C45
P/2020 R5 (PANSTARRS),e,11.4438,272.9648,82.6508,4.988229,0.0884677,0.31438413,103.0221,08/07.0/2023,2000,g  9.5,6.0
# From MPEC 2021-Y10
C/2020 R6 (Rankin),e,82.8140,12.1792,271.9932,310.6145,0.0001800,0.98990775,0.0000,09/08.2966/2019,2000,g 11.0,4.0
# From MPEC 2023-P25
C/2020 R7 (ATLAS),h,09/16.2527/2022,114.8983,268.2870,347.8420,1.000257,2.955961,2000,7.0,3.2
# From MPEC 2021-BE3
P/2020 S1 (PANSTARRS),e,13.7265,129.4605,255.0519,5.994357,0.0671568,0.50772383,62.5496,08/07.0/2023,2000,g 14.0,4.0
# From MPEC 2022-ST7
C/2020 S2 (PANSTARRS),e,22.4045,197.6623,202.3562,10.22688,0.0301363,0.82816888,28.8630,08/07.0/2023,2000,g 17.0,4.0
# From MPEC 2022-C56
C/2020 S3 (Erasmus),e,20.0177,222.5974,350.0884,150.1697,0.0005356,0.99736233,0.0000,12/11.9024/2020,2000,g 13.5,3.2
# From MPEC 2023-O39
C/2020 S4 (PANSTARRS),h,02/09.2377/2023,20.5684,117.7180,20.9928,1.001448,3.369735,2000,8.5,3.2
# From MPEC 2021-BE3
P/2020 S5 (PANSTARRS),e,12.3457,315.9961,53.2469,4.054821,0.1207109,0.33839929,131.9197,08/07.0/2023,2000,g 14.5,4.0
# From MPEC 2021-BE3
P/2020 S7 (PANSTARRS),e,16.0853,328.0304,40.6102,5.031586,0.0873266,0.41060750,86.5595,08/07.0/2023,2000,g 14.5,4.0
# From MPEC 2021-P47
C/2020 S8 (Lemmon),e,108.5274,24.0691,160.2596,259.9278,0.0002352,0.99091759,0.0000,04/10.7951/2021,2000,g 12.5,4.0
# From MPEC 2022-ST7
C/2020 T2 (Palomar),e,27.8550,82.9646,150.5174,298.8701,0.0001908,0.99311577,0.0000,07/10.9144/2021,2000,g 11.0,3.2
# From MPEC 2021-N06
P/2020 T3 (PANSTARRS),e,7.2998,73.9865,357.0429,3.516851,0.1494422,0.59219745,138.6943,08/07.0/2023,2000,g 18.0,3.2
# From MPEC 2021-N06
C/2020 T4 (PANSTARRS),h,07/05.3820/2021,83.8456,50.6163,79.6041,1.000308,2.191116,2000,13.0,3.2
# From MPEC 2021-BE3
C/2020 T5 (Lemmon),e,66.5537,237.8368,90.3428,728.7260,0.0000501,0.99740375,0.0000,10/09.2130/2020,2000,g 16.0,4.0
# From MPEC 2021-N06
P/2020 U2 (PANSTARRS),e,6.4191,342.8769,84.6565,3.777978,0.1342193,0.51121452,128.0203,08/07.0/2023,2000,g 18.0,4.0
# From MPEC 2021-W31
C/2020 U3 (Rankin),e,30.1542,282.6295,124.3654,66.70930,0.0018089,0.96585806,1.6493,08/07.0/2023,2000,g 15.0,4.0
# From MPEC 2023-P25
C/2020 U4 (PANSTARRS),h,04/09.3251/2022,167.0194,120.3446,70.0379,1.000640,5.358262,2000,7.0,4.0
# From MPEC 2023-O39
C/2020 U5 (PANSTARRS),e,97.2763,107.3242,75.4371,3650,0.0000045,0.99897095,0.0000,04/27.9690/2022,2000,g  8.0,4.0
# From MPEC 2023-P25
C/2020 V2 (ZTF),h,05/08.5256/2023,131.6122,212.3714,162.4126,1.001272,2.227729,2000,4.9,4.0
# From MPEC 2023-D72
P/2020 V3 (PANSTARRS),e,23.0331,198.2520,249.4041,8.388231,0.0405694,0.25714127,36.8416,08/07.0/2023,2000,g  8.3,4.0
# From MPEC 2023-KD6
P/2020 V4 (Rankin),e,14.2445,203.4823,257.0486,9.371781,0.0343535,0.45063288,25.7497,08/07.0/2023,2000,g  9.0,4.0
# From MPEC 2021-BE3
P/2020 W1 (Rankin),e,10.7858,124.2727,265.2055,7.216501,0.0508410,0.26633595,61.7664,08/07.0/2023,2000,g 10.0,4.0
# From MPEC 2021-BE3
C/2020 W5 (Lemmon),h,11/30.1456/2020,88.6017,75.4625,24.5092,1.000870,3.365767,2000,15.0,4.0
# From MPEC 2023-P25
P/2020 WJ5 (Lemmon),e,22.2927,177.8075,338.1334,6.015484,0.0668034,0.17139851,51.2709,08/07.0/2023,2000,g  8.5,4.0
# From MPEC 2021-P47
P/2020 X1 (ATLAS),e,31.6936,55.9861,323.4576,4.531480,0.1021748,0.36540130,113.6257,08/07.0/2023,2000,g 13.0,4.0
# From MPEC 2021-U31
C/2020 X2 (ATLAS),e,18.1848,105.4115,347.3877,16.46325,0.0147547,0.76754055,14.6633,08/07.0/2023,2000,g 10.6,4.0
# From MPEC 2021-S45
C/2020 X4 (Leonard),e,80.6094,161.8846,140.3106,40.62887,0.0038059,0.87144741,3.7836,08/07.0/2023,2000,g  9.0,4.0
# From MPEC 2023-P25
C/2020 Y2 (ATLAS),e,101.2961,26.5143,266.2525,2216,0.0000095,0.99858434,0.0000,06/18.2734/2022,2000,g  6.5,4.0
# From MPEC 2021-R75
C/2020 Y3 (ATLAS),e,83.1020,191.4382,341.9362,141.7430,0.0005841,0.98592163,0.0000,12/03.2960/2020,2000,g 13.5,4.0
# From MPEC 2023-CD7
C/2021 A1 (Leonard),h,01/03.2893/2022,132.7207,255.9008,225.1210,1.000036,0.615902,2000,8.5,4.0
# From MPEC 2022-F14
C/2021 A2 (NEOWISE),e,106.9925,125.1844,338.7762,231.3247,0.0002801,0.99389583,0.0000,01/22.3772/2021,2000,g 13.5,4.0
# From MPEC 2022-ED3
C/2021 A4 (NEOWISE),e,111.5401,307.1107,204.7114,42.42110,0.0035672,0.97294584,0.0000,03/19.6910/2021,2000,g 16.0,4.0
# From MPEC 2021-BE3
P/2021 A5 (PANSTARRS),e,18.1827,328.7575,61.3725,3.047651,0.1852492,0.13992965,184.7178,08/07.0/2023,2000,g 15.0,4.0
# From MPEC 2023-O39
C/2021 A6 (PANSTARRS),e,75.5997,164.0721,351.6281,8899,0.0000012,0.99910939,0.0000,05/03.1510/2021,2000,g  7.0,4.0
# From MPEC 2022-M88
C/2021 A7 (NEOWISE),e,78.1561,154.4970,356.0008,2122,0.0000101,0.99907351,0.0000,07/15.1689/2021,2000,g 10.0,4.0
# From MPEC 2023-KD6
C/2021 A9 (PANSTARRS),h,12/01.7240/2023,158.0163,314.8389,211.4646,1.001783,7.760047,2000,6.0,4.0
# From MPEC 2021-N06
C/2021 A10 (NEOWISE),e,151.9394,188.7040,82.3862,87.51867,0.0012038,0.98557338,0.0000,03/14.9991/2021,2000,g 19.0,4.0
# From MPEC 2022-L66
